| **基 本 数 据** |  |
| :--- | :--- |
| 机型 | B737-300 |
| 飞机号 | B2582 |
| 座舱布局（头等舱/经济舱） | 8/140 |
| 最大滑行重量\(MTW\) | 61461KG |
| 最大起飞重量（MTOW） | 61235KG |
| 最大落地重量\(MLW\) | 51709KG |
| 最大无油重量\(MZFW\) | 48307KG |
| 干使用重量（DOW）/ADJUSTED APS WEIGHT | 33183KG |
| 飞行/乘务/安全员人数 | 2/4/1 |
| 前舱/中舱/后舱旅客人数 | 25/40（含3名儿童）/30 |
| 货物\(1/2/3/4舱位分配\) | 2800KG（1000/1000/800/0） |
| 行李\(1/2/3/4舱位分配\) | 1400KG（0/0/800/600） |
| 邮件\(1/2/3/4舱位分配\) | 300KG（0/0/0/300） |
| 起飞构型 | 空调自动/防冰关/襟翼5/不使用APU |
| 起飞机场/目的地机场滑行耗油 | 200KG/200KG |
| 进近时间：5分钟 | 进近着陆状态耗油率：70KG/分钟 |
|  | **备注：每名旅客按照75KG计算，儿童按照38KG计算。** |
|  | **航 班 信 息** |
|  | 日 期：20120127 预计起飞时间：0230UTC |
|  | 航班号：CZ3591航线：郑州—上海 |
| 飞机故障信息 | 防撞系统（TCAS）失效 |

**注意事项:**

**在题目给定的条件下航班能否按照预计起飞时刻放行？ 如不能请在答题纸上说明理由，并判断最早放行时间？**





---------------------------------------------------------------------







航空气象情报

Aviation Meteorological Information



航线：郑州-上海虹桥 查询时间\(Query Time\)：GMT 2012-01-27 02:10:15

ROUTE:ZHCC-ZSSS



◆出发机场：郑州 \(Departure:ZHCC\)

\[SA\] METAR ZHCC 270200Z 01006MPS 3000 HZ SKC 02/M06 Q1023 NOSIG=

\[FC\] TAF ZHCC 262249Z 270009 34003MPS 6000 NSC=

\[FT\] TAF ZHCC 261937Z 270024 18003MPS 1600 BR NSC BECMG 0203 4000 HZ=



◆到达机场：上海虹桥 \(Arrival:ZSSS\)

\[SA\] METAR ZSSS 270200Z VRB01MPS 9999 BKN026 09/03 Q1023 NOSIG=

\[FC\] TAF ZSSS 262239Z 270009 15004MPS 8000 NSC BECMG 0304 05005MPS=

\[FT\] TAF ZSSS 262134Z 270024 05004MPS 6000 SCT020 BECMG 1820 2000 -RA BR BKN015=



◆备降机场实况\(The Alternate Airports Report\)：

\[SA\] METAR ZHLY 270200Z VRB01MPS 3500 BR NSC 01/M06 Q1022 NOSIG=

\[SA\] METAR ZHNY 270200Z 00000MPS 1000 BR SKC 00/M00 Q1023=

\[SA\] METAR ZSPD 270200Z 04003MPS 9999 SCT033 08/04 Q1023 NOSIG=

\[SA\] METAR ZSHC 270200Z 00000MPS 3500 BR SCT026 06/02 Q1023 NOSIG=

\[SA\] METAR ZSNJ 270200Z 00000MPS 2500 R06/1400N HZ SKC 04/M02 Q1024 NOSIG=

\[SA\] METAR ZSCN 270200Z VRB01MPS 2200 BR SCT013 OVC040 04/01 Q1022 BECMG FM0340 3000=

\[SA\] METAR ZSOF 270200Z 35002MPS 310V060 3500 HZ SKC 05/M01 Q1023 NOSIG=

\[SA\] METAR ZSNB 270200Z VRB01MPS 1800 -RA BR SCT003 BKN016 OVC033 06/06 Q1023 NOSIG=

\[SA\] METAR ZSAM 270200Z 09003MPS 4000 BR BKN019 OVC053 12/09 Q1020 NOSIG=

\[SA\] METAR ZSWZ 270200Z 31006MPS 9999 FEW009 BKN020 OVC040 08/06 Q1022 NOSIG=

\[SA\] METAR ZSFZ 270200Z 29002MPS 260V360 1700 BR OVC016 10/09 Q1021 NOSIG=

\[SA\] METAR ZHHH 270200Z 13002MPS 110V170 2000 HZ NSC 02/M02 Q1023 NOSIG=

\[SA\] METAR ZSJN 270200Z 07002MPS 360V120 3000 HZ SKC 00/M08 Q1025 NOSIG=



◆备降机场预报\(The Alternate Airports Forecast\)：

\[FC\] TAF ZHLY 262159Z 270009 08003MPS 4500 HZ NSC BECMG 0708 07004MPS=

\[FC\] TAF ZHNY 262241Z 270009 VRB02MPS 0800 FZFG NSC BECMG 0203 1300 BR BECMG 0304 1600=

\[FC\] TAF ZSPD 262238Z 270009 04004MPS 8000 NSC=

\[FC\] TAF ZSHC 262227Z 270009 09003MPS 3500 -RA BR FEW010 SCT023 OVC040=

\[FC\] TAF ZSNJ 262233Z 270009 09004MPS 1500 BR NSC BECMG 0304 3500 BR=

\[FC\] TAF ZSCN 262237Z 270009 01003MPS 4000 BR SCT020 OVC040=

\[FC\] TAF ZSOF 262230Z 270009 14004MPS 2400 BR NSC BECMG 0203 4000 HZ=

\[FC\] TAF ZSNB 262247Z 270009 15004MPS 3500 -RA BR SCT015 OVC050=

\[FC\] TAF ZSAM 262241Z 270009 10004MPS 6000 BKN023 OVC060=

\[FC\] TAF ZSWZ 262229Z 270009 33004MPS 3000 BR SCT025 OVC050 BECMG 0203 0700 4MPS=

\[FC\] TAF ZSFZ 262240Z 270009 33004MPS 3000 -RA BR OVC020=

\[FC\] TAF ZHHH 262235Z 270009 10004MPS 1600 BR NSC BECMG 0203 6000=

\[FC\] TAF ZSJN 262235Z 270009 06004MPS 5000 HZ SKC=



◆飞越的情报区、管制区\(The Significant Meteorological Information\)：

\[WS\] ZSHA SIGMET 4 VALID 262230/270230 ZSSS- ZSHASHANGHAI FIR SEV TURB FCST N OF N30 ABV FL230 STNR NC = NNNN



\*\*\*\*\*\*\*\*\*\*OVER\*\*\*\*\*\*\*\*\*\*



  


飞行前航行通告



航线： 郑州-上海虹桥 有效时间段: 2011-10-29 00:01至 2012-01-28 23:59

---------------------------------------------------------------------\*\*\*\*\*\*\*\*\*\*\*\*\*\*\*\*\*\*\*\*\*\*\*\*\*\* ZHCC机场的通告 \*\*\*\*\*\*\*\*\*\*\*\*\*\*\*\*\*\*\*\*\*\*\*\*\*\*

----------机场导航设施----------

\(\*\*\)C2457/11 ZHCC 201112261303-201212312359 \(大约\)

李源屯 NDB 'BS' 285KHZ不工作 .

\*\*\*\*\*\*\*\*\*\*\*\*\*\*\*\*\*\*\*\*\*\*\*\*\*\* ZSSS机场的通告 \*\*\*\*\*\*\*\*\*\*\*\*\*\*\*\*\*\*\*\*\*\*\*\*\*\*

---------机场设施与服务-----------

\(\*\*\)C0117/12 ZSSS 201201170937-\(永久\)

上海虹桥机场正式运行 RNAV飞行程序 ,以 RNAV-1飞行程序为主用程序 \(仅提供水平引导 \),传统飞行程序为备份程序 ,航空公司原则上只能执行 RNAV-1飞行程序 .

----------机场导航设施----------

C9996/12 ZSSS ZSPD 201201010000-201212312359

虹桥、浦东RAIM预测信息：

ZSSS\(上海-虹桥\)/ZSPD\(上海-浦东\)

26/01/2012 00:00:00 29/01/2012 00:00:00可用 3天0小时0分钟

----------跑道信息----------

\(\*\*\)C3912/11 ZSSS 201112150800-\(永久\)

RWY18L/36R宽度调整为 :45M,PCN调整为 :130/F/C/W/T.

----------灯光设备----------

\(\*\*\)C3913/11 ZSSS 201112150800-\(永久\)

RWY18L进近灯光调整为 CAT I类 .

----------滑行道信息----------

C0115/12 ZSSS 201201170935-\(永久\)

本场在飞行区 262-265机位区域距离 D滑行道以西 65.5米处增设一条机坪滑行线 L13（限翼展不超过 36米的飞机使用 \).

262-265机位的飞机可沿相应推出线推至 L13上相应的等待点，再由等待点开车进入 D滑，使用的推出线及推出方向根据管制指令执行 .

C0113/12 ZSSS 201201170934-\(永久\)

本场在飞行区 232-235机位区域距离 D滑行道以西 65.5米处增设一条机坪滑行线 L12（限翼展不超过 36米的飞机使用 \).

232-235机位的飞机可沿相应推出线推至 L12上相应的等待点，再由等待点开车进入 D滑，使用的推出线及推出方向根据管制指令执行 .

----------其它----------

C0182/12 ZSSS 201201201200-201202042359

关闭 260机位 ,因施工 .

---------------------------------------------------------------------

&gt;&gt;&gt;&gt;&gt;&gt;&gt;&gt;&gt;&gt;&gt;&gt;&gt;&gt;&gt;&gt;&gt;&gt;&gt;&gt;&gt;&gt;&gt;&gt;&gt;&gt;&gt;&gt;&gt;&gt;&gt;情报区 &lt;&lt;&lt;&lt;&lt;&lt;&lt;&lt;&lt;&lt;&lt;&lt;&lt;&lt;&lt;&lt;&lt;&lt;&lt;&lt;&lt;&lt;&lt;&lt;&lt;&lt;&lt;&lt;&lt;&lt;

---------------------------------------------------------------------

\*\*\*\*\*\*\*\*\*\*\*\*\*\*\*\*\*\*\*\*\*\*\*\*\*\* ZBPE情报区的通告 \*\*\*\*\*\*\*\*\*\*\*\*\*\*\*\*\*\*\*\*\*\*\*\*

----------空域与航路信息----------

\(\*\*\)C1921/11 ZBPE 201112280001-\(永久\)

石家庄进近管制区实施雷达管制 .

一、实施范围：石家庄进近管制区范围内移交民航管制指挥的航路、航线（军航固定使用地段除外），标准大气压高度 5， 400米（含）以下 .

二、间隔标准：

（一）石家庄进近管制区内航路、航线上飞行的航空器最小水平间隔为 10千米 .

（二）石家庄进近管制区内执行雷达间隔的航空器与管制区边界线之间的间隔：相邻管制区使用雷达间隔时；航空器距管制区边界不得小于 5千米，相邻管制区使用非雷达间隔时；航空器距管制区边界不得小于 10千米 .

C0383/11 ZBPE 201112150000-\(永久\)

参考国内航空资料汇编 \(2011年 12月 15日生效版 \),航路 3.1.2-5页 B215航路报告点 OKVEM更名为 OVKEM, 3.1.8-27页 W135航线报告点 OKVEM更名为 OVKEM.

\(\*\*\)C0332/11 ZBPE 201111170000-\(永久\)

1.北京区域 02号扇区大同 -天镇 -公会 -N412749E1132340-N403111E1122946-大同连线范围内 ,垂直范围调整为 :7800米 \(不含 \)以上

2.北京区域 09号 ,10号扇区垂直范围调整为 :7800米 \(不含 \)以上

3.呼和浩特区域 01号 ,02号管制扇区垂直范围调整为 :7800米 \(含 \)以下 .

\(\*\*\)C0059/11 ZBPE 201104070000-\(永久\)

1.北京区域 07号扇区水平范围调整为 :

大同 -太原 -N353000E1122500-林县 -磁县 -N381900E1140500-大同连线范围内 , 垂直范围调整为标准气压高度 7,800米 \(不含 \)以上 .

2.北京区域 08号扇区水平范围调整为 :

刀兔 -武家湾 -吴堡 -薛峰镇 -潼关 -N353000E1122500-太原 -大同 -平鲁 -N392400E1115200-刀兔连线范围内 ,垂直范围调整为标准气压高度 7,800米 \(不含 \)以上 .

3.北京区域 10号扇区垂直范围调整为 :

N405318E1125023-N405536E1095847-N404022E1060208

连线以北范围内为标准气压高度 8,400米 \(不含 \)以上 ,以南范围内为标准气压高度 7,800米

\(不含 \)以上 .

4.太原区域 01号 ,02号扇区垂直范围调整为标准气压高度 7,800米 \(含 \)以下 .

5.呼和浩特区域 02号扇区垂直范围调整为 :蹬口 -刀兔 -平鲁 -大同 -凉城 -N405318E1125023-N405536E1095847-N404022E1060208-蹬口连线范围内为标准气压高度 7,800米 \(含 \)以下 ,其余范围内为标准气压高度 8,400米 \(含 \)以下 .

----------空中活动----------

C0001/12 ZBPE 201201010115-201203312045

0115-0245 0715-0845 1915-2045 DLY

释放探空气球，地点： E11233N3747，每天三次，

气球颜色为乳白色，直径 3米，升速约 400米 /分，最高达 30000M，

飞行时间 90分钟 . F\)GND G\)30000M AGL

----------其它----------

\(\*\*\)C1960/11 ZBPE 201112291509-201203312359

天津进近管制室增设海上管制席位：

1.范围： N391600 E1180530、 N395400 E1192100、 N393000 E1195200、 N381500 E1200000、 N375212 E1184436、 N380000 E1180000、 N382500 E1173000、 N390321 E1174358、各点连线空域内，高度 1,800（含） \(QNH\)米以下 .

2.中文呼号：天津进近，英文呼号： TIANJIN APPROACH,

3.频率：主用 119.55MHZ,备用 127.9MHZ,

4.开放时间听从天津进近管制室通知 .

\*\*\*\*\*\*\*\*\*\*\*\*\*\*\*\*\*\*\*\*\*\*\*\*\* ZSHA情报区的通告 \*\*\*\*\*\*\*\*\*\*\*\*\*\*\*\*\*\*\*\*\*\*\*\*\*

----------空域与航路信息----------

\(\*\*\)C0181/12 ZSHA 201201201027-\(永久\)

海峡两岸直航航班执行下列规定 :,

1.在云和 NDB至 SULEM航段飞行高度层配备如下 :

从云和 NDB往 SULEM方向配备西向飞行高度层

从 SULEM往云和 NDB方向配备东向飞行高度层 .

2.在 SULEM以西 5海里与 OKATO之间为上海飞行情报区公制 RVSM高度层配备和台北飞行情报区英制 RVSM高度层配备的转换区域 .

3.海峡两岸直航航班飞越 SULEM时 ,

向东飞行使用 FL240, FL280和 FL340

向西飞行使用 FL250,FL290和 FL370.

\(\*\*\)C0108/12 ZSHA 201201170827-\(永久\)

航线 X109可供济南遥墙 ,潍坊 ,东营机场至铜山 VOR以远方向的航班使用 ,航线 X110可供 P58以远方向至济南遥墙 ,潍坊 ,东营机场的航班使用 ,上述航线具体使用听从 ATC指挥 .

C0381/11 ZSHA 201112150000-\(永久\)

新增青岛 VOR-P305航段 ,数据如下 :

航段 磁航迹 距离 最低飞行高度 代号

青岛VOR-P305 158/338 21\(12\) 1732M

\(\*\*\)C0328/11 ZSHA 201111170000-\(永久\)

H40航线济南 VOR-DALIM航段代号调整为 W142.

\(\*\*\)C0165/11 ZSHA 201107280000-\(永久\)

参阅国内航空资料汇编航路 5.1,将报告点 UGAGO坐标改为 N29 37.7E119 39.1,

P07坐标改为 N38 06.7E119 32.0,同时修改航路 3中相关航路航线中的 UGAGO,P07报告点坐标 ,相关航段数据不变 .

\(\*\*\)C1052/11 ZSHA 201104151548-201203312359

在安徽省全省范围内设立多个炮射点 ,进行人工增雨防雹作业 .

高炮作业最大射高 5,000米 ,最大射程 4,000米，射角 45度至 80度；

火箭作业最大射高 8,000米 ,最大射程 9,000米，射角 56度至 85度 .

在炮射期间 ,各类飞行严格执行 ATC指令 .

F\)FL000 G\)FL262\)

----------ATC程序----------

\(\*\*\)C0008/11 ZSHA 201101051018-\(永久\)

凡进出青岛 04号 ,05号扇区的航班 ,飞行计划报和动态报等业务电报应同时加发 '大连管制区 \(ZYTLZXZX\)'和 '沈阳情报区 \(ZYTXZXZX\)'. DUPE



----------航路导航设施----------

\(\*\*\)C0195/12 ZSHA 201201201448-\(永久\)

青州 NDB ''DO''/331KHZ限用情况如下 :NDB 107度径向 40海里以外不可用 .

\(\*\*\)C4113/11 ZSHA 201112302000-201209301500

桐庐全向信标 /测距仪 TOL/115.9MHZ径向线 224度 ,测距仪信号不可用 .

----------其它----------

C0193/12 ZSHA 201201201441-\(永久\)

福州长乐二次监视雷达开放使用 .

C0186/12 ZSHA 201201201415-\(永久\)

荣成二次监视雷达开放使用 .

\(\*\*\)C0168/12 ZSHA 201201191118-\(永久\)

温州大罗山二次监视雷达开放使用。

C0154/12 ZSHA 201201181424-\(永久\)

合肥区域 02扇区主用管制频率由 122.05 MHZ变更为 135.6 MHZ .

C0119/12 ZSHA 201201170938-\(永久\)

所有飞越济南管制区或在济南管制区内起降的航班，加发华北空管局运管中心地址： ZBAAZBZX和北京区管中心地址： ZBAAZRZX和 ZBACZQZX.

C0005/12 ZSHA 201201130001-201202082359

\*\*\*\*\*\*\*\*\*\*\*\*\*\*\*\*\*\*\*\*\*\*\*\*\* ZHWH情报区的通告 \*\*\*\*\*\*\*\*\*\*\*\*\*\*\*\*\*\*\*\*\*\*\*\*\*

----------航路导航设施----------

\(\*\*\)C2442/11 ZHWH 201112241110-201206302359 \(大约\)

龙口 DME 'LKO' CH105X限制性使用 :DME台在 020度径向 38-41海里不可用 .

---------------------------------------------------------------------

&gt;&gt;&gt;&gt;&gt;&gt;&gt;&gt;&gt;&gt;&gt;&gt;&gt;&gt;&gt;&gt;&gt;&gt;&gt;&gt;&gt;&gt;&gt;&gt;&gt;&gt;&gt;&gt;&gt;&gt;&gt;备降场 &lt;&lt;&lt;&lt;&lt;&lt;&lt;&lt;&lt;&lt;&lt;&lt;&lt;&lt;&lt;&lt;&lt;&lt;&lt;&lt;&lt;&lt;&lt;&lt;&lt;&lt;&lt;&lt;&lt;&lt;

---------------------------------------------------------------------

\*\*\*\*\*\*\*\*\*\*\*\*\*\*\*\*\*\*\*\*\*\*\*\*\* ZHLY机场的通告 \*\*\*\*\*\*\*\*\*\*\*\*\*\*\*\*\*\*\*\*\*\*\*\*\*\*\*

---------机场设施与服务-----------

\(\*\*\)C2329/11 ZHLY 201112091030-201204091500 \(大约\)

本场气源车故障 ,暂不提供使用 .

----------其它----------

\(\*\*\)C0042/12 ZHLY 201201141015-201202021700 \(大约\)

ATIS不提供使用因故障 .

\(\*\*\)C0068/11 ZHLY 201112150001-201202082359 \(大约\)

\*\*\*\*\*\*\*\*\*\*\*\*\*\*\*\*\*\*\*\*\*\*\*\*\*\* ZHNY机场的通告 \*\*\*\*\*\*\*\*\*\*\*\*\*\*\*\*\*\*\*\*\*\*\*\*\*\*

---------机场设施与服务-----------

\(\*\*\)C2294/11 ZHNY 201112052130-201206300800

2130-0800 DLY

机场不接受备降因机场扩建施工 .

----------ILS信息----------

\(\*\*\)C0977/11 ZHNY 201106120000-201203312359 \(大约\)

RWY05 ILS关闭 ,因机场扩建 .

----------机场导航设施----------

\(\*\*\)C2463/11 ZHNY 201112261523-201206300800 \(大约\)

南阳 NDB 'ML' 446KHZ关闭 ,因更新改造 .

----------跑道信息----------

\(\*\*\)C2434/11 ZHNY 201112232058-201206300800 \(大约\)

本场不停航施工 .23号跑道入口以北新建 500米延长段不可用 .

设有不适用标志 ,请机组注意观察 .

----------灯光设备----------

\(\*\*\)C2472/11 ZHNY 201112262000-201206302359 \(大约\)

RWY23进近灯光系统不工作 ,因机场扩建 .

----------滑行道信息----------

\(\*\*\)C2304/11 ZHNY 201112060800-201206300800 \(大约\)

新建平行滑行道不可用 ,设有关闭标志 ,机组注意观察 .

\(\*\*\)C2303/11 ZHNY 201112060800-201206300800 \(大约\)

1号滑行道南北两侧新建的快速滑行道及垂直滑行道不可用 .设有关闭标志 ,请机组注意观察 .

C2300/11 ZHNY 201112070800-\(永久\)

2号滑行道以南的滑行道关闭 ,因拆除 .

C2296/11 ZHNY 201112070800-\(永久\)

2号滑行道关闭 ,因拆除 .

----------ATC程序----------

\(\*\*\)C2466/11 ZHNY 201112261801-201206300800 \(大约\)

本场 23号跑道 NDB/DME,NDB进近程序的运行最低标准整如下 :

1\)A.B.C.D类飞机运行最低标准 MDA\(H\)120米不变 ,能见度 \(VIS\)由 1,900M增加至 2,400M.

2\)目视盘旋进近程序 A.B类飞机运行最低标准 MDA\(H\)155米不变 ,能见度 \(VIS\)由 2,600M增加至 3,000M.

----------其它----------

C0029/12 ZHNY 201201101533-201206302359 \(大约\)

原运 5停机坪重新编号为 5-16号停机位 ,由北向南依次排列 .翼展限制 18.176米以下 .进出 5-16号停机位方式为牵引方式 .

C0027/12 ZHNY 201201101525-201206302359 \(大约\)

10-16号运五停机位关闭 ,因扩建 .

C2301/11 ZHNY 201112060800-201206300800 \(大约\)

原客机坪以北的新建机坪不可用 .设有关闭标志 ,请机组注意观察 .

C2295/11 ZHNY 201112051609-201206300800

机场施工 .位置在跑道两侧距跑道中心线 75米至机场围界的区域 .施工区域白天有红色彩旗 ,夜间有红色灯光有围界隔离施工区域 .有大型机械活动 .机组注意观察 .

\*\*\*\*\*\*\*\*\*\*\*\*\*\*\*\*\*\*\*\*\*\*\*\*\*\* ZHHH机场的通告 \*\*\*\*\*\*\*\*\*\*\*\*\*\*\*\*\*\*\*\*\*\*\*\*\*\*

----------滑行道信息----------

\(\*\*\)C2214/11 ZHHH 201111181800-\(永久\)

B滑行道以东的 B2滑更名为 C6滑 ,双向通行 .

\(\*\*\)C2209/11 ZHHH 201111181730-\(永久\)

跑道和 B滑行道之间的 B2滑现设为单向通行 \(只用于脱离跑道 \).

----------通讯和雷达----------

\(\*\*\)C2191/11 ZHHH 201111151616-\(永久\)

武汉天河机场正式启用地面放行席位 ,通信频率： 121.8MHZ.

----------其它----------

\(\*\*\)C2123/11 ZHHH 201111030000-\(永久\)

00:00-06:00 DAILY

开放 224号停机位为航空器清洗机位 .

\(\*\*\)C0083/11 ZHHH 201101121700-\(永久\)

在 216号停机位增加一条 C类机型的鼻轮线 ,位置 :在 B757机型鼻轮线前方 7.3米处 .可停靠机型包括 :B737-300至 900型、 A319、 A320、 A321、 ERJ190.所有停靠在 216号停机位 C类机型鼻轮线上的飞机不靠廊桥 ,由客梯车进行飞机的保障作业 .

\(\*\*\)C0067/11 ZHHH 201112150001-201202082359 \(大约\)

\*\*\*\*\*\*\*\*\*\*\*\*\*\*\*\*\*\*\*\*\*\*\*\*\*\* ZLXY机场的通告 \*\*\*\*\*\*\*\*\*\*\*\*\*\*\*\*\*\*\*\*\*\*\*\*\*\*

---------机场设施与服务-----------

\(\*\*\)C1371/11 ZLXY 201111160200-201202160600

0200-0600 DLY

咸阳机场飞行区排水系统改造 .施工区域为两条直线：第一条宽 1米、长 90米，西端距跑道中心线以南 80米，距 05号跑道入口以东 668.5米；东端距跑道中心线以南 39.63米，距 05号跑道入口以东 749米 .第二条宽 1米、长 44米，西端距跑道中心线以南 154.94米，距 05号跑道入口以东 708.5米；东端距跑道中心线以南 142.7米，距 05号跑道入口以东 752.5米 .施工在每日夜航结束后进行 .

----------机场导航设施----------

\(\*\*\)C1289/11 ZLXY 201110311435-201204301600

豆马 NDB\(GF/460KHZ\)在 353度径向距台 35NM以外，在 182度径向距台 20NM以外不可用 .

\(\*\*\)C1288/11 ZLXY 201110311435-201204301600

三原 NDB（ OD/202KHZ\)在 314度径向 12NM以外不可用 ,在 288度径向 11NM以外不可用 ,在 020度径向 38NM以外不可用 .

\(\*\*\)C1287/11 ZLXY 201110311430-201204301600

烟庄 NDB\(ZS/359KHZ\)限制性使用：在 114度径向 30NM以内不可用，在 162度径向 5NM至 20NM不可用，在 342度径向线不可用 ,在 334度径向线不可用在 336度径向线不可用 ,在 332度径向 8NM以外不可用，等待程序径向线 114度不可用 .

----------通讯和雷达----------

C0020/12 ZLXY 201201061001-\(永久\)

西安咸阳机场雷神一次 INDRA二次合装雷达正式开放使用 .

----------ATC程序----------

\(\*\*\)C1501/11 ZLXY 201112140958-201202292359

复飞梯度 3.0，

本场 RWY23 ILS/DME运行最低标准为：

A,B :DA\(H\) 543\(65\)米 , RVR/VIS:550/800米

C :DA\(H\) 548\(70\)米 ,RVR/VIS:550/800米

D :DA\(H\) 553\(75\)米 ,RVR/VIS:600/800米 .

\(\*\*\)C1500/11 ZLXY 201112140958-201202292359

复飞梯度 2.5，

本场 RWY23 ILS/DME运行最低标准为：

A,B :DA\(H\) 603\(125\)米 ,RVR/VIS:1, 200米

C :DA\(H\) 608\(130\)米 ,RVR/VIS:1,600米

D :DA\( H\) 608\(130\)米 ,RVR/VIS:2,000米 .

\(\*\*\)C1499/11 ZLXY 201112140957-201202292359

复飞梯度 4，

本场 RWY05 ILS/DME运行最低标准为：

A,B :DA\(H\) 541\(65\)米 , RVR/VIS:550/800米

C :DA\(H\) 546\(70\)米 ,RVR/VIS:550/800米

D :DA\(H\) 546\(70\)米 ,RVR/VIS:600/800米 .

\(\*\*\)C1498/11 ZLXY 201112140956-201202292359

复飞梯度为 2.5，

本场 RWY05 ILS/DME运行最低标准为：

A :DA\(H\) 591\(115\)米 , RVR/VIS:1,200米

B,C :DA\(H\) 596\(120\)米 ,RVR/VIS:1,200米

D :DA\(H\) 601\(125\)米 ,RVR/VIS:1,600米 .

\(\*\*\)C1497/11 ZLXY 201112140956-201202292359

本场目视盘旋限定在跑道北侧进行 .

\(\*\*\)C1496/11 ZLXY 201112140955-201202292359

本场 RWY23 GP不工作时，运行最低标准改为：

A,B :MDA\(H\) 635\(157\)米 ,VIS:1,600米

C :MDA\(H\) 635\(157\)米 ,VIS:2,000米

D :MDA\(H\) 635\(157\)米 ,VIS:2,400米 .

\(\*\*\)C1495/11 ZLXY 201112140955-201202292359

本场 RWY23 NDB/DME运行最低标准改为：

A,B :MDA\(H\) 635\(157\)米 ,VIS:1,600米

C :MDA\(H\) 635\(157\)米 ,VIS:2,000米

D :MDA\(H\) 635\(157\)米 ,VIS:2, 400米 .

\(\*\*\)C1494/11 ZLXY 201112140954-201202292359

本场 RWY23 VOR/DME运行最低标准改为：

A,B :MDA\(H\) 635\(157\)米 ,VIS:1,600米

C :MDA\(H\) 635\(157\)米 ,VIS:2,000米

D :MDA\(H\) 635\(157\)米 ,VIS:2, 400米 .

\(\*\*\)C1493/11 ZLXY 201112140953-201202292359

本场 RWY05 GP不工作时，运行最低标准改为：

A,B :MDA\(H\) 635\(159\)米 ,VIS:1,600米

C :MDA\(H\) 635\(159\)米 ,VIS:2,000米

D :MDA\(H\) 635\(159\)米 ,VIS:2,400米 .

\(\*\*\)C1492/11 ZLXY 201112140953-201202292359

本场 RWY05 NDB/DME运行最低标准改为：

A,B :MDA\(H\) 635\(159\)米 ,VIS:1,600米

C :MDA\(H\) 635\(159\)米 ,VIS:2,000米

D :MDA\(H\) 635\(159\)米 ,VIS:2, 400米 .

\(\*\*\)C1491/11 ZLXY 201112140952-201202292359

本场 RWY05 VOR/DME运行最低标准改为：

A,B :MDA\(H\) 635\(159\)米 ,VIS:1,600米

C :MDA\(H\) 635\(159\)米 ,VIS:2,000米

D :MDA\(H\) 635\(159\)米 ,VIS:2, 400米 .

\(\*\*\)C0390/11 ZLXY 201112150000-\(永久\)

参阅国内航空资料汇编航图手册西安 /咸阳机场 ZLXY-4A/4B\(2011-4-1\):太原方向进场航线 ,太原 VOR至 NUGLA航段调整为 MAPMU-NUGLA,磁航向 222度 ,距离 180千米 .

等待程序调整为 R042度 /D44.5YIJ上空右等待 ,出航航迹调整为 042度 ,入航航迹调整为 222度 ,等待高度及时间不变 .

----------其它----------

\(\*\*\)C0023/12 ZLXY 201201061012-\(永久\)

塔台增设放行许可发布席 ,中文呼号 :咸阳放行 ,英文呼号 : XIANYANG DELIVERY,通信频率 :121.60MHZ.开放时段为每日 00:00-24:00.

备注：请机组注意

\(\*\*\)C1490/11 ZLXY 201112140949-201202292359

本场新竖立障碍物 :塔台塔吊 .高度： 109米（海拔高度： 585米） .

位置：位于 05/23号跑道东南方向，距机场基准点磁方向 123.3度 ,距机场基准点 885M.

坐标： N342633. 24E1084536.81.

在此期间 ,塔吊将继续升高至海拔高度 605米（不含） ,塔吊装有红色障碍物灯 .

\*\*\*\*\*\*\*\*\*\*\*\*\*\*\*\*\*\*\*\*\*\*\*\*\*\* ZBYN机场的通告 \*\*\*\*\*\*\*\*\*\*\*\*\*\*\*\*\*\*\*\*\*\*\*\*\*\*

---------机场设施与服务-----------

C1988/11 ZBYN 201112310945-201203312359

在机场活动区及上空有鸟群活动 ,请机组注意观察 .

----------ILS信息----------

\(\*\*\)C1991/11 ZBYN 201112301834-201206302359

RWY13 MM\(75MHZ\)不工作 .

\(\*\*\)C1987/11 ZBYN 201112310944-201203312359

RWY31 OM\(75MHZ\)不工作 .

\(\*\*\)C1986/11 ZBYN 201112310942-201203312359

RWY13 OM\(75MHZ\)不工作 .

----------其它----------

C1989/11 ZBYN 201112310946-201203312359

太原武宿国际机场 101号、 102号、 103号、 104号、 105号、 106号机位停止使用。

\(\*\*\)C1286/11 ZBYN 201108311040-201202292359

为避免飞机在地面滑行冲突 ,对国内航空公司运行的航班做如下要求 :

当管制员发布 \(可以推出 \)的指令后 ,要求机组在 3分钟之内完成推出 ,若超过 3分钟 ,

管制指令自动取消 ,机组需重新申请 .

\*\*\*\*\*\*\*\*\*\*\*\*\*\*\*\*\*\*\*\*\*\*\*\*\*\*\* ZBSJ机场的通告 \*\*\*\*\*\*\*\*\*\*\*\*\*\*\*\*\*\*\*\*\*\*\*\*\*

\(\*\*\)C0098/11 ZBSJ 201106020000-\(永久\)

增设石家庄进近管制区 ,内容如下 :

一 .范围 :

石家庄进近管制区水平范围为 : N390836E1143554-N390642E1145511 - N385400E1152230-N384100E1153000-N375800E1153300-N372957E1150606-N3 72943E1141525-N381900E1140500-N385123E1135043-N390836E1143554连线范围内

垂直范围为 :5400米 \(含 \)以下 ,塔台管制区范围除外 .

二 .呼号 :中文 :\`\`石家庄进近 \`\`,英文 :\` \`SHIJIAZHUANG APPROACH\`\`.

三 .频率 :主频 :124.75MHZ,备频 :120.45MHZ.

四 .工作时间 :H24.

\*\*\*\*\*\*\*\*\*\*\*\*\*\*\*\*\*\*\*\*\*\*\*\*\*\*\* ZSPD机场的通告 \*\*\*\*\*\*\*\*\*\*\*\*\*\*\*\*\*\*\*\*\*\*\*\*\*

---------机场设施与服务-----------

\(\*\*\)C0118/12 ZSPD 201201170937-\(永久\)

上海浦东机场正式运行 RNAV飞行程序 ,以 RNAV-1飞行程序为主用程序 \(仅提供水平引导 \),传统飞行程序为备份程序 ,航空公司原则上只能执行 RNAV-1飞行程序 .

----------跑道信息----------

\(\*\*\)C0201/12 ZSPD 201201312300-201202050700

2300-0700\(NEXT DAY\) JAN 31 AND FEB 04

1.关闭 RWY17R/35L.跑道关闭期间 ,设置跑道临时关闭标志 .

2.1月 31日，需穿越该跑道的航空器 ,仅限使用 P2和 P6滑行道 .

 2月 04日，需穿越该跑道的航空器 ,仅限使用 P1和 P4滑行道 .

\(\*\*\)C0179/12 ZSPD 201201310100-201202040700

0100-0700 JAN 31,FEB 2 AND 4

RWY16/34关闭 .跑道关闭期间 ,设置跑道临时关闭标志 .

\(\*\*\)C0177/12 ZSPD 201201300100-201202030700

0100-0700 JAN 30 AND FEB 3

RWY17L/35R关闭 .跑道关闭期间 ,设置跑道临时关闭标志 .需穿越该跑道的航空器 ,仅限使用 P2和 P4滑行道 .

\(\*\*\)C0109/12 ZSPD 201201260100-201201280700

0100-0700 ON JAN 26 AND 28

RWY16/34关闭 .跑道关闭期间 ,设置跑道临时关闭标志 .

\(\*\*\)C0102/12 ZSPD 201201242300-201201290700

2300-0700\(NEXT DAY\) ON JAN 24 AND 28

因维护 , RWY17R/35L关闭 .跑道关闭期间 ,设置跑道临时关闭标志 .需穿越该跑道的航空器 ,仅限使用 P2和 P4滑行道 .

----------滑行道信息----------

C0142/12 ZSPD 201201280100-201201280700

关闭 P1至 P2, P2至 T3之间的 B滑行道 .

C0110/12 ZSPD 201201260100-201201280700

0100-0700 ON JAN 26 AND 28

1.F滑行道关闭 .

2.F1至 T3之间的 E滑行道关闭 ,含 F1与 E滑之间的交叉道口 .

C0103/12 ZSPD 201201242300-201201290700

2300-0700\(NEXT DAY\)ON JAN 24 AND 28

P1至 P2,P2至 P4,P4至 P6之间的 C、 D滑行道关闭 ,含 P1、 P6与 C、 D之间的交叉道口 .

----------ATC程序----------

\(\*\*\)C3285/11 ZSPD 201110241615-201203312359 \(大约\)

上海浦东机场往返无锡硕放机场飞行方法 :

1.SUF-21D/SUF-11D离场 :使用 ZSPD-3A/3B离场图至九亭 VOR/DME'JTN'109.6MHZ/CH33X,接 J80航线 ,使用 ZSWX-4A/4B进场图至硕放机场 .

2.SUF-22D/SUF-12D离场 :使用 ZSPD-3C/3D离场图至南翔 NDB 'PK'208KHZ,后按磁航向 242度飞 16KM至重固 VOR/DME'CGT'112.5MHZ/CH72X,后右转加入 J80航线 ,使用 ZSWX-4A/4B进场图至硕放机场 .

3.SUF-11A进场 :使用 ZSWX-3A/3B离场图加入 J80航线至九亭 VOR/DME'JTN'109.6MHZ/CH33X后飞磁航向 131度， 33KM至 IAF\(D17.8JTN\)至浦东机场 .

4.SUF-12A进场 :使用 ZSWX-3A/3B离场图加入 J80航线至九亭VOR/DME'JTN'109.6MHZ/CH33X后飞磁航向 093度 , 32KM至 IAF\(六灶 VOR/DME'PDL'109.4MHZ/CH31X\)至浦东机场 .

5.浦东机场至硕放机场飞行高度 2,400米 ,回程 2,100米 .

使用以上飞行方法均需 ATC同意 .

\*\*\*\*\*\*\*\*\*\*\*\*\*\*\*\*\*\*\*\*\*\*\*\*\*\* ZSHC机场的通告 \*\*\*\*\*\*\*\*\*\*\*\*\*\*\*\*\*\*\*\*\*\*\*\*\*\*

---------机场设施与服务-----------

\(\*\*\)C0098/12 ZSHC 201201300200-201207090700

0200-0700 EVERY MON

机场关闭 .

----------机场导航设施----------

\(\*\*\)C0026/12 ZSHC 201201050001-201207050001

闻堰 NDB ''WY''/572KHZ 067度磁方位 3海里至 8海里之间和 355度磁方位不提供使用 .

\(\*\*\)C4131/11 ZSHC 201112311247-201210010900

嵊州 DME''SHZ''/CH81X 338度方位 29海里以外不可用

----------灯光设备----------

C0031/12 ZSHC 201201050001-201207052359

B7与 B10之间的 Z1滑行线灯不工作 .

----------滑行道信息----------

C0091/12 ZSHC 201201160700-201207160659

关闭 T14滑行线 .

C0030/12 ZSHC 201201050001-201207052359

B8滑行道关闭 ,因施工 .

关闭期间设立关闭标志及设置关闭障碍灯 .

----------其它----------

C0147/12 ZSHC 201201181355-\(永久\)

杭州萧山国际机场在 A3， A4， A5， A6四条快速脱离道靠近 A滑行道侧设置禁止进入标志牌。

\(\*\*\)C0076/12 ZSHC 201201121524-\(永久\)

参阅 NAIP杭州 /萧山机场标准仪表进场图 \(ZSHC-4A/4B EFF:2012-1-12\),强制报告点 ''新 UDOLA''更名为 ''F点 '',其他内容不变 .

备注：该通告只修改杭州机场进场图中的“新UDOLA”点，上海区域图中 A470航路上的“UDOLA”点不变，请机组注意。

\*\*\*\*\*\*\*\*\*\*\*\*\*\*\*\*\*\*\*\*\*\*\*\*\*\* ZSNJ机场的通告 \*\*\*\*\*\*\*\*\*\*\*\*\*\*\*\*\*\*\*\*\*\*\*\*\*\*

---------机场设施与服务-----------

\(\*\*\)C0222/12 ZSNJ 201202060300-201207020700

0300-0700 ON EVERY MON

机场关闭 ,因施工 .

----------滑行道信息----------

\(\*\*\)C0170/12 ZSNJ 201201191122-\(永久\)

A滑与 Z1滑之间的 K滑行道增设的中间等待位置标志（ HP1） .

\(\*\*\)C0171/12 ZSNJ 201201191124-\(永久\)

所有航空器在执行标准仪表进、离场程序时，实际飞行高度必须听从 ATC指挥。

备注：请机组注意



----------其它----------

\(\*\*\)C0172/12 ZSNJ 201201191125-\(永久\)

39、 40号航空器停机位全部撤除 .

C0032/12 ZSNJ 201201060000-\(永久\)

南京进近管制服务 02号扇区 \( ZSNJAP02\)服务时间原 0800-2200现为全天开放 \(H24\).

\*\*\*\*\*\*\*\*\*\*\*\*\*\*\*\*\*\*\*\*\*\*\*\*\*\* ZSJN机场的通告 \*\*\*\*\*\*\*\*\*\*\*\*\*\*\*\*\*\*\*\*\*\*\*\*\*\*

---------机场设施与服务-----------

\(\*\*\)C3386/11 ZSJN 201110311609-201204012359

因停机坪施工，每日 00:00-08:00不接收备降，其它时段接收备降的航班数量同时不超过 5架 .

----------ILS信息----------

\(\*\*\)C0216/12 ZSJN 201201261908-201202262359

RWY01 ILS不工作 ,因设备更新 .

\*\*\*\*\*\*\*\*\*\*\*\*\*\*\*\*\*\*\*\*\*\*\*\*\*\* ZSNB机场的通告 \*\*\*\*\*\*\*\*\*\*\*\*\*\*\*\*\*\*\*\*\*\*\*\*\*\*

----------机场导航设施----------

\(\*\*\)C3017/11 ZSNB 201110180000-201203172359

宁波 DVOR/DME\(NGB/116.3MHZ/CH110X\)因建设停机 .



\*\*\*\*\*\*\*\*\*\*\*\*\*\*\*\*\*\*\*\*\*\*\*\*\*\* ZSWZ机场的通告 \*\*\*\*\*\*\*\*\*\*\*\*\*\*\*\*\*\*\*\*\*\*\*\*\*\*

---------机场设施与服务-----------

C3999/11 ZSWZ 201112200913-201202202359

温州机场消防等级降到 7级 .

\(\*\*\)C3283/11 ZSWZ 201110241553-201212312359

本场现用跑道 RWY03/21东侧有一在建跑道 ,在建跑道与现有跑道平行，北端平齐 ,中心线间距 262.5米 .目前施工区域已设置禁用标志 ,请机组注意观察 ,防止落错跑道 .

备注：请机组注意！

----------机场导航设施----------

\(\*\*\)C0166/12 ZSWZ 201201191110-\(永久\)

温州机场以 RNP APCH飞行程序作为主用程序 .

C3397/11 ZSWZ 201111011541-\(永久\)

东山导航台 DVOR/DME\(DST/109.2MHZ/CH29X\)限制使用情况如下 :

1.测距仪 216度方位 6.5至 8.0海里不可用

2.全向信标 294度方位 13.0至 14.0海里不可用

3.全向信标 105度方位 65至 71海里不可用 .

----------其它----------

\(\*\*\)C0167/12 ZSWZ 201201191116-\(永久\)

下滑台加装 DME天线 ,天线位于 03号跑道入口内 307米 ,跑道中心线以西 123米 ,天线高度 8米 .

C3868/11 ZSWZ 201112160000-201203162359

不停航施工部分区域内有数台插板机活动。活动区域位于跑道中心线东侧 232.5米至 292.5米，跑道北端平齐至跑道南端以南 600米。插板机高度 20.78米，顶端有红色警示灯和红旗标志。

请机组注意观察。

\*\*\*\*\*\*\*\*\*\*\*\*\*\*\*\*\*\*\*\*\*\*\*\*\*\* ZSQD机场的通告 \*\*\*\*\*\*\*\*\*\*\*\*\*\*\*\*\*\*\*\*\*\*\*\*\*\*

----------机场导航设施----------

\(\*\*\)C4046/11 ZSQD 201112271601-201203021430 \(大约\)

本场南超远台 NDB\(PA/338KHZ\)限制性使用：

012度径向 4.5海里至 7海里不可用，

171度径向 2.0海里至 6.0海里不可用，

223度径向 3.5海里至 7.5海里不可用，

215度径向不可用。

----------ATC程序----------

\(\*\*\)C0046/12 ZSQD 201201091114-\(永久\)

参阅 NAIP航图手册标准仪表进场图 ZSQD-4A/4B\(2011-11-15\),定位点数据更改如下 :

夏格庄 :R010度 D24.4TAO,其它不变 .切夏格庄 :D25.6TAO,其它不变 .

\*\*\*\*\*\*\*\*\*\*\*\*\*\*\*\*\*\*\*\*\*\*\*\*\*\* ZSFZ机场的通告 \*\*\*\*\*\*\*\*\*\*\*\*\*\*\*\*\*\*\*\*\*\*\*\*\*\*

----------机场导航设施----------

\(\*\*\)C0194/12 ZSFZ 201201201445-\(永久\)

连江全向信标 /测距台 VOR/DME ''LJG'' 117.6MHZ/CH123X限用情况更改为如下 :

1. VOR/DME径向线 040度顺时针至 155度不可用 ,但 117度和 133度径向线方位可用 .

2. VOR/DME径向线方位 186度 22海里以外和径向线方位 189度 22海里以外不可用 .

3. DME 328度方位顺时针至 332度方位不可用 .

4. DME 004度径向 22海里以外不可用 .

----------滑行道信息----------

C0197/12 ZSFZ 201201201455-\(永久\)

新增 B9联络道 ,B9中心线位于 B8中心线以北 400米 ,连接 A滑和 B滑 ,宽度 34米 ,

PCN 83/R/B/W/T.

----------其它----------

\*\*\*\*\*\*\*\*\*\*\*\*\*\*\*\*\*\*\*\*\*\*\*\*\*\* ZBTJ机场的通告 \*\*\*\*\*\*\*\*\*\*\*\*\*\*\*\*\*\*\*\*\*\*\*\*\*\*

----------跑道信息----------

\(\*\*\)C1963/11 ZBTJ 201112291700-201201310700

17:00-07:00\(NEXT DAY\)

跑道 16L/34R关闭 .

\(\*\*\)C1962/11 ZBTJ 201112291600-201201312359

跑道 16L/34R自北端向南 640米关闭 .

\(\*\*\)C1958/11 ZBTJ 201112291454-201201312359

因跑道 16L/34R自北端向南 640米临时关闭 ,跑道 16L/34R公布距离如下：

16L跑道 :可用起飞滑跑距离 2,560米，可用起飞距离 2,560米，可用加速停止距离 2,560米，可用着陆距离不可用。

34R跑道 :可用起飞滑跑距离 2,560米，可用起飞距离 2,560米，可用加速停止距离 2,560米，可用着陆距离 2,560米。

\(\*\*\)C1953/11 ZBTJ 201112291440-201205302359

16L/34R跑道仅供空客 A320试飞使用。

----------滑行道信息----------

C1959/11 ZBTJ 201112291504-201203152359

开放 C1滑以南的 C滑行道 .

C1957/11 ZBTJ 201112291452-201201312359

W滑行道自北端向南 640米关闭 .

C1956/11 ZBTJ 201112291451-201201312359

N滑行道开放使用 .

C1954/11 ZBTJ 201112291440-201203312359

A滑以西的 A10滑行道关闭 ,设有关闭标志和红色警示灯。

----------ATC程序----------

\(\*\*\)C1961/11 ZBTJ 201112291511-201205312359

修改本场 RWY34L VOR/DME程序和 RWY34L ILS/DME中 GP INOP程序天气标准：

1.RWY34L VOR/DME程序的天气标准 :

A B C D VOR/DME MDA\(H\)/VIS 120\(118\)/1200 120\(118\)/1200 120\(118\)/1200 120\(118\)/1600

2.RWY34L ILS/DME中 GP INOP程序的天气标准 :

A B C D GP INOP MDA\(H\)/VIS 120\(118\)/1200 120\(118\)/1200 120\(118\)/1200 120\(118\)/1600



\*\*\*\*\*\*\*\*\*\*结束 \*\*\*\*\*\*\*\*\*\*

